STARLINK-33699          
1 63328U 25057X   26178.90840664  .00017199  00000+0  63286-3 0  9996
2 63328  42.9996 120.6278 0001868 273.5191  86.5446 15.27590456 72680
STARLINK-33674          
1 63329U 25057Y   26178.91144477  .00015680  00000+0  57807-3 0  9992
2 63329  43.0020 128.4440 0001304 260.7109  99.3595 15.27582080 72636
STARLINK-32840          
1 63363U 25063A   26178.95224775  .00017279  00000+0  52136-3 0  9997
2 63363  53.1586 256.5940 0001149  92.6037 267.5097 15.34399686 71675
STARLINK-32543          
1 63364U 25063B   26178.64550443  .00024161  00000+0  72387-3 0  9996
2 63364  53.1585 258.2332 0001024  97.5337 262.5782 15.34401817 71630
STARLINK-33741          
1 63365U 25063C   26178.93549901  .00022032  00000+0  66106-3 0  9993
2 63365  53.1584 257.1870 0000444 216.8044 143.2928 15.34409847 71684
STARLINK-33742          
1 63366U 25063D   26178.95519951  .00017277  00000+0  59398-3 0  9998
2 63366  53.1595 260.1463 0001090  95.2498 264.8627 15.30205205 71593
STARLINK-33734          
1 63367U 25063E   26178.58116046  .00020608  00000+0  70615-3 0  9993
2 63367  53.1609 272.0013 0001270  81.3447 278.7698 15.30192799 71396
STARLINK-33578          
1 63368U 25063F   26178.54257367 -.00019964  00000+0 -58174-3 0  9993
2 63368  53.1593 259.0019 0001228  87.7035 272.4108 15.34375810 71563
STARLINK-33626          
1 63369U 25063G   26178.91446264  .00020552  00000+0  61766-3 0  9995
2 63369  53.1577 257.0526 0001116  87.6151 272.4979 15.34403917 71635
STARLINK-33657          
1 63370U 25063H   26178.92919360  .00015953  00000+0  48229-3 0  9998
2 63370  53.1587 257.1455 0001209 102.0993 258.0145 15.34399327 71633
STARLINK-33648          
1 63371U 25063J   26178.96139266  .00023751  00000+0  77409-3 0  9999
2 63371  53.1593 260.1873 0001393  72.9742 287.1412 15.31724979 71643
STARLINK-33614          
1 63372U 25063K   26178.93970889  .00016954  00000+0  51168-3 0  9992
2 63372  53.1599 257.2109 0001121  65.4366 294.6753 15.34406384 71682
STARLINK-33617          
1 63373U 25063L   26178.62034383  .00018765  00000+0  56506-3 0  9992
2 63373  53.1595 258.7686 0001204  89.9348 270.1793 15.34403683 71589
STARLINK-33618          
1 63374U 25063M   26178.63287702  .00016234  00000+0  49064-3 0  9999
2 63374  53.1589 258.1391 0000989  75.9329 284.1783 15.34394211 71640
STARLINK-33621          
1 63375U 25063N   26178.63919073  .00025505  00000+0  76348-3 0  9999
2 63375  53.1591 258.1798 0001094  87.4601 272.6527 15.34397133 71592
STARLINK-33539          
1 63376U 25063P   26178.52323207  .00015291  00000+0  52734-3 0  9990
2 63376  53.1604 272.3490 0001459 108.3358 251.7802 15.30200602 71383
STARLINK-33634          
1 63377U 25063Q   26178.95203013  .00013374  00000+0  46270-3 0  9998
2 63377  53.1605 260.1231 0001286  94.7445 265.3703 15.30211139 71643
STARLINK-33640          
1 63378U 25063R   26178.95730990  .00018954  00000+0  65034-3 0  9996
2 63378  53.1590 260.1543 0001627  92.9331 267.1856 15.30204252 71643
STARLINK-33636          
1 63379U 25063S   26178.94576002  .00079729  00000+0  19954-2 0  9994
2 63379  53.1605 257.9716 0003401  28.6166 331.5025 15.39417401 71624
STARLINK-33653          
1 63380U 25063T   26178.91668981 -.00020351  00000+0 -64556-3 0  9999
2 63380  53.1598 260.4423 0001222  83.9347   3.7803 15.31712644  5779
STARLINK-33643          
1 63381U 25063U   26178.96258453  .00024855  00000+0  84827-3 0  9998
2 63381  53.1592 260.1889 0001419  95.7937 264.3226 15.30208140 71644
STARLINK-33748          
1 63383U 25063W   26178.91668981 -.00014278  00000+0 -41234-3 0  9991
2 63383  53.1585 270.9938 0001273  74.0862  62.6812 15.34390939  5871
STARLINK-33658          
1 63384U 25063X   26178.93129813  .00034790  00000+0  10359-2 0  9992
2 63384  53.1584 257.1526 0000632 164.9171 195.1850 15.34403798 71685
STARLINK-33616          
1 63385U 25063Y   26178.91668981 -.00038562  00000+0 -11370-2 0  9992
2 63385  53.1594 271.0704 0001683  64.8118  37.1546 15.34370654  5820
STARLINK-33571          
1 63386U 25063Z   26178.65820489  .00031802  00000+0  94714-3 0  9999
2 63386  53.1597 270.3497 0001408  90.6771 269.4393 15.34440846 71422
STARLINK-33533          
1 63387U 25063AA  26178.92706829  .00006215  00000+0  19485-3 0  9993
2 63387  53.1583 257.1308 0001225  92.4773 267.6370 15.34413357 71636
STARLINK-33629          
1 63388U 25063AB  26178.92077277  .00023295  00000+0  69828-3 0  9995
2 63388  53.1595 257.0889 0001645  76.2912 283.8274 15.34407173 71681
STARLINK-33656          
1 63389U 25063AC  26178.64905315  .00021640  00000+0  70628-3 0  9990
2 63389  53.1587 261.0804 0001180  99.1555 260.9580 15.31736868 71607
STARLINK-33531          
1 63399U 25065A   26178.36083724  .00017962  00000+0  66020-3 0  9996
2 63399  42.9984 207.6402 0001038 258.1367 101.9368 15.27603019 69617
STARLINK-33652          
1 63400U 25065B   26178.79283880  .00011664  00000+0  43270-3 0  9996
2 63400  42.9997 204.8606 0001771 274.0913  85.9736 15.27582060 69686
