OBJECT_NAME,OBJECT_ID,EPOCH,MEAN_MOTION,ECCENTRICITY,INCLINATION,RA_OF_ASC_NODE,ARG_OF_PERICENTER,MEAN_ANOMALY,EPHEMERIS_TYPE,CLASSIFICATION_TYPE,NORAD_CAT_ID,ELEMENT_SET_NO,REV_AT_EPOCH,BSTAR,MEAN_MOTION_DOT,MEAN_MOTION_DDOT
STARLINK-33699,2025-057X,2026-06-27T21:48:06.333696,15.27590456,.00018682,42.9996,120.6278,273.5191,86.5446,0,U,63328,999,7268,.63286451E-3,.17199E-3,0
STARLINK-33674,2025-057Y,2026-06-27T21:52:28.828128,15.27582080,.00013045,43.0020,128.4440,260.7109,99.3595,0,U,63329,999,7263,.57806977E-3,.1568E-3,0
STARLINK-32840,2025-063A,2026-06-27T22:51:14.205600,15.34399686,.00011497,53.1586,256.5940,92.6037,267.5097,0,U,63363,999,7167,.52135803E-3,.17279E-3,0
STARLINK-32543,2025-063B,2026-06-27T15:29:31.582752,15.34401817,.0001024,53.1585,258.2332,97.5337,262.5782,0,U,63364,999,7163,.7238691E-3,.24161E-3,0
STARLINK-33741,2025-063C,2026-06-27T22:27:07.114464,15.34409847,.00004442,53.1584,257.1870,216.8044,143.2928,0,U,63365,999,7168,.66106272E-3,.22032E-3,0
STARLINK-33742,2025-063D,2026-06-27T22:55:29.237664,15.30205205,.00010904,53.1595,260.1463,95.2498,264.8627,0,U,63366,999,7159,.59397823E-3,.17277E-3,0
STARLINK-33734,2025-063E,2026-06-27T13:56:52.263744,15.30192799,.00012705,53.1609,272.0013,81.3447,278.7698,0,U,63367,999,7139,.70614824E-3,.20608E-3,0
STARLINK-33578,2025-063F,2026-06-27T13:01:18.365088,15.34375810,.00012282,53.1593,259.0019,87.7035,272.4108,0,U,63368,999,7156,-.5817415E-3,-.19964E-3,0
STARLINK-33626,2025-063G,2026-06-27T21:56:49.572096,15.34403917,.00011163,53.1577,257.0526,87.6151,272.4979,0,U,63369,999,7163,.61765982E-3,.20552E-3,0
STARLINK-33657,2025-063H,2026-06-27T22:18:02.327040,15.34399327,.00012093,53.1587,257.1455,102.0993,258.0145,0,U,63370,999,7163,.48228559E-3,.15953E-3,0
STARLINK-33648,2025-063J,2026-06-27T23:04:24.325824,15.31724979,.00013932,53.1593,260.1873,72.9742,287.1412,0,U,63371,999,7164,.77408804E-3,.23751E-3,0
STARLINK-33614,2025-063K,2026-06-27T22:33:10.848096,15.34406384,.00011211,53.1599,257.2109,65.4366,294.6753,0,U,63372,999,7168,.51167964E-3,.16954E-3,0
STARLINK-33617,2025-063L,2026-06-27T14:53:17.706912,15.34403683,.00012049,53.1595,258.7686,89.9348,270.1793,0,U,63373,999,7158,.56505542E-3,.18765E-3,0
STARLINK-33618,2025-063M,2026-06-27T15:11:20.574528,15.34394211,.00009894,53.1589,258.1391,75.9329,284.1783,0,U,63374,999,7164,.4906428E-3,.16234E-3,0
STARLINK-33621,2025-063N,2026-06-27T15:20:26.079072,15.34397133,.00010944,53.1591,258.1798,87.4601,272.6527,0,U,63375,999,7159,.76348148E-3,.25505E-3,0
STARLINK-33539,2025-063P,2026-06-27T12:33:27.250848,15.30200602,.00014598,53.1604,272.3490,108.3358,251.7802,0,U,63376,999,7138,.5273353E-3,.15291E-3,0
STARLINK-33634,2025-063Q,2026-06-27T22:50:55.403232,15.30211139,.0001286,53.1605,260.1231,94.7445,265.3703,0,U,63377,999,7164,.46270323E-3,.13374E-3,0
STARLINK-33640,2025-063R,2026-06-27T22:58:31.575360,15.30204252,.00016276,53.1590,260.1543,92.9331,267.1856,0,U,63378,999,7164,.65033508E-3,.18954E-3,0
STARLINK-33636,2025-063S,2026-06-27T22:41:53.665728,15.39417401,.00034016,53.1605,257.9716,28.6166,331.5025,0,U,63379,999,7162,.19954111E-2,.79729E-3,0
STARLINK-33653,2025-063T,2026-06-27T22:00:01.999584,15.31712644,.00012223,53.1598,260.4423,83.9347,3.7803,0,U,63380,999,577,-.6455572E-3,-.20351E-3,0
STARLINK-33643,2025-063U,2026-06-27T23:06:07.303392,15.30208140,.00014198,53.1592,260.1889,95.7937,264.3226,0,U,63381,999,7164,.84827438E-3,.24855E-3,0
STARLINK-33748,2025-063W,2026-06-27T22:00:01.999584,15.34390939,.0001273,53.1585,270.9938,74.0862,62.6812,0,U,63383,999,587,-.41233759E-3,-.14278E-3,0
STARLINK-33658,2025-063X,2026-06-27T22:21:04.158432,15.34403798,.00006328,53.1584,257.1526,164.9171,195.1850,0,U,63384,999,7168,.10358964E-2,.3479E-3,0
STARLINK-33616,2025-063Y,2026-06-27T22:00:01.999584,15.34370654,.0001683,53.1594,271.0704,64.8118,37.1546,0,U,63385,999,582,-.1137E-2,-.38562E-3,0
STARLINK-33571,2025-063Z,2026-06-27T15:47:48.902496,15.34440846,.00014086,53.1597,270.3497,90.6771,269.4393,0,U,63386,999,7142,.94714446E-3,.31802E-3,0
STARLINK-33533,2025-063AA,2026-06-27T22:14:58.700256,15.34413357,.00012257,53.1583,257.1308,92.4773,267.6370,0,U,63387,999,7163,.19484935E-3,.6215E-4,0
STARLINK-33629,2025-063AB,2026-06-27T22:05:54.767328,15.34407173,.00016453,53.1595,257.0889,76.2912,283.8274,0,U,63388,999,7168,.6982842E-3,.23295E-3,0
STARLINK-33656,2025-063AC,2026-06-27T15:34:38.192160,15.31736868,.00011807,53.1587,261.0804,99.1555,260.9580,0,U,63389,999,7160,.70628184E-3,.2164E-3,0
STARLINK-33531,2025-065A,2026-06-27T08:39:36.337536,15.27603019,.00010386,42.9984,207.6402,258.1367,101.9368,0,U,63399,999,6961,.66019527E-3,.17962E-3,0
STARLINK-33652,2025-065B,2026-06-27T19:01:41.272320,15.27582060,.00017711,42.9997,204.8606,274.0913,85.9736,0,U,63400,999,6968,.43269699E-3,.11664E-3,0
